STARLINK-32412          
1 61680U 24193V   25253.29458443  .00003058  00000+0  11529-3 0  9992
2 61680  53.1599 209.1830 0001392  99.1780 260.9378 15.30213769 48900
STARLINK-32426          
1 61681U 24193W   25253.29883103  .00000829  00000+0  40106-4 0  9995
2 61681  53.1599 209.2091 0001281  85.5614 274.5533 15.30192148 48904
STARLINK-32429          
1 61682U 24193X   25253.31349015  .00000351  00000+0  23987-4 0  9996
2 61682  53.1576 208.5827 0001465  90.2155 269.9014 15.30194295 48914
STARLINK-11335 [DTC]    
1 61687U 24195A   25252.58104683 -.00000832  00000+0 -20127-5 0  9991
2 61687  53.1591 199.4173 0001184  60.7561 299.3575 15.69698728 50586
STARLINK-11344 [DTC]    
1 61688U 24195B   25253.27649669  .00000595  00000+0  97656-5 0  9992
2 61688  53.1595 195.9306 0000992  73.4216 286.6911 15.69710439 50693
STARLINK-11312 [DTC]    
1 61689U 24195C   25253.14425845 -.00002813  00000+0 -18359-4 0  9996
2 61689  53.1599 196.5269 0001363  67.3087 292.8075 15.69714714 50672
STARLINK-11340 [DTC]    
1 61690U 24195D   25253.26668606  .00000657  00000+0  10282-4 0  9994
2 61690  53.1605 195.8661 0001300  82.8140 277.3026 15.69716132 50695
STARLINK-11339 [DTC]    
1 61691U 24195E   25253.25687442 -.00001810  00000+0 -10072-4 0  9994
2 61691  53.1582 195.7975 0001329  60.9015 299.2136 15.69725868 50697
STARLINK-11315 [DTC]    
1 61692U 24195F   25252.56140526 -.00006271  00000+0 -46880-4 0  9997
2 61692  53.1596 199.2849 0001500 136.0339 224.0798 15.69734796 50585
STARLINK-11366 [DTC]    
1 61693U 24195G   25253.12462663  .00001879  00000+0  20363-4 0  9995
2 61693  53.1592 196.3944 0001276  73.9357 286.1801 15.69718268 50675
STARLINK-11348 [DTC]    
1 61694U 24195H   25253.24707417 -.00003328  00000+0 -22642-4 0  9993
2 61694  53.1599 195.7345 0001096  78.7491 281.3650 15.69693252 50699
STARLINK-11327 [DTC]    
1 61695U 24195J   25253.24216390  .00001128  00000+0  14178-4 0  9998
2 61695  53.1582 195.7037 0001871  56.0242 304.0954 15.69710441 50694
STARLINK-11341 [DTC]    
1 61696U 24195K   25253.23725912 -.00002705  00000+0 -17474-4 0  9999
2 61696  53.1596 195.6680 0001059  57.7461 302.3660 15.69709752 50690
STARLINK-11346 [DTC]    
1 61697U 24195L   25252.27731146 -.00000943  00000+0 -29242-5 0  9998
2 61697  53.1590 200.3456 0001254  82.4565 277.6595 15.69698648 50543
STARLINK-11336 [DTC]    
1 61698U 24195M   25252.66668981  .00007051  00000+0  63007-4 0  9999
2 61698  53.1572 191.5068 0000976 106.1865  97.8158 15.69708734  5940
STARLINK-11296 [DTC]    
1 61699U 24195N   25253.22254122  .00000229  00000+0  67494-5 0  9996
2 61699  53.1577 195.5733 0001441  81.2057 278.9124 15.69709082 50697
