[{"OBJECT_NAME":"STARLINK-32412","OBJECT_ID":"2024-193V","EPOCH":"2025-09-10T07:04:12.094752","MEAN_MOTION":15.30213769,"ECCENTRICITY":0.00013929,"INCLINATION":53.1599,"RA_OF_ASC_NODE":209.183,"ARG_OF_PERICENTER":99.178,"MEAN_ANOMALY":260.9378,"EPHEMERIS_TYPE":0,"CLASSIFICATION_TYPE":"U","NORAD_CAT_ID":61680,"ELEMENT_SET_NO":999,"REV_AT_EPOCH":4890,"BSTAR":0.00011529276,"MEAN_MOTION_DOT":3.058e-5,"MEAN_MOTION_DDOT":0},{"OBJECT_NAME":"STARLINK-32426","OBJECT_ID":"2024-193W","EPOCH":"2025-09-10T07:10:19.000992","MEAN_MOTION":15.30192148,"ECCENTRICITY":0.0001281,"INCLINATION":53.1599,"RA_OF_ASC_NODE":209.2091,"ARG_OF_PERICENTER":85.5614,"MEAN_ANOMALY":274.5533,"EPHEMERIS_TYPE":0,"CLASSIFICATION_TYPE":"U","NORAD_CAT_ID":61681,"ELEMENT_SET_NO":999,"REV_AT_EPOCH":4890,"BSTAR":4.010564e-5,"MEAN_MOTION_DOT":8.29e-6,"MEAN_MOTION_DDOT":0},{"OBJECT_NAME":"STARLINK-32429","OBJECT_ID":"2024-193X","EPOCH":"2025-09-10T07:31:25.548960","MEAN_MOTION":15.30194295,"ECCENTRICITY":0.00014654,"INCLINATION":53.1576,"RA_OF_ASC_NODE":208.5827,"ARG_OF_PERICENTER":90.2155,"MEAN_ANOMALY":269.9014,"EPHEMERIS_TYPE":0,"CLASSIFICATION_TYPE":"U","NORAD_CAT_ID":61682,"ELEMENT_SET_NO":999,"REV_AT_EPOCH":4891,"BSTAR":2.3987491e-5,"MEAN_MOTION_DOT":3.51e-6,"MEAN_MOTION_DDOT":0},{"OBJECT_NAME":"STARLINK-11335 [DTC]","OBJECT_ID":"2024-195A","EPOCH":"2025-09-09T13:56:42.446112","MEAN_MOTION":15.69698728,"ECCENTRICITY":0.00011848,"INCLINATION":53.1591,"RA_OF_ASC_NODE":199.4173,"ARG_OF_PERICENTER":60.7561,"MEAN_ANOMALY":299.3575,"EPHEMERIS_TYPE":0,"CLASSIFICATION_TYPE":"U","NORAD_CAT_ID":61687,"ELEMENT_SET_NO":999,"REV_AT_EPOCH":5058,"BSTAR":-2.01269e-6,"MEAN_MOTION_DOT":-8.32e-6,"MEAN_MOTION_DDOT":0},{"OBJECT_NAME":"STARLINK-11344 [DTC]","OBJECT_ID":"2024-195B","EPOCH":"2025-09-10T06:38:09.314016","MEAN_MOTION":15.69710439,"ECCENTRICITY":9.921e-5,"INCLINATION":53.1595,"RA_OF_ASC_NODE":195.9306,"ARG_OF_PERICENTER":73.4216,"MEAN_ANOMALY":286.6911,"EPHEMERIS_TYPE":0,"CLASSIFICATION_TYPE":"U","NORAD_CAT_ID":61688,"ELEMENT_SET_NO":999,"REV_AT_EPOCH":5069,"BSTAR":9.765576e-6,"MEAN_MOTION_DOT":5.95e-6,"MEAN_MOTION_DDOT":0},{"OBJECT_NAME":"STARLINK-11312 [DTC]","OBJECT_ID":"2024-195C","EPOCH":"2025-09-10T03:27:43.930080","MEAN_MOTION":15.69714714,"ECCENTRICITY":0.00013635,"INCLINATION":53.1599,"RA_OF_ASC_NODE":196.5269,"ARG_OF_PERICENTER":67.3087,"MEAN_ANOMALY":292.8075,"EPHEMERIS_TYPE":0,"CLASSIFICATION_TYPE":"U","NORAD_CAT_ID":61689,"ELEMENT_SET_NO":999,"REV_AT_EPOCH":5067,"BSTAR":-1.8359333e-5,"MEAN_MOTION_DOT":-2.813e-5,"MEAN_MOTION_DDOT":0},{"OBJECT_NAME":"STARLINK-11340 [DTC]","OBJECT_ID":"2024-195D","EPOCH":"2025-09-10T06:24:01.675584","MEAN_MOTION":15.69716132,"ECCENTRICITY":0.00013004,"INCLINATION":53.1605,"RA_OF_ASC_NODE":195.8661,"ARG_OF_PERICENTER":82.814,"MEAN_ANOMALY":277.3026,"EPHEMERIS_TYPE":0,"CLASSIFICATION_TYPE":"U","NORAD_CAT_ID":61690,"ELEMENT_SET_NO":999,"REV_AT_EPOCH":5069,"BSTAR":1.0281922e-5,"MEAN_MOTION_DOT":6.57e-6,"MEAN_MOTION_DDOT":0},{"OBJECT_NAME":"STARLINK-11339 [DTC]","OBJECT_ID":"2024-195E","EPOCH":"2025-09-10T06:09:53.949888","MEAN_MOTION":15.69725868,"ECCENTRICITY":0.00013294,"INCLINATION":53.1582,"RA_OF_ASC_NODE":195.7975,"ARG_OF_PERICENTER":60.9015,"MEAN_ANOMALY":299.2136,"EPHEMERIS_TYPE":0,"CLASSIFICATION_TYPE":"U","NORAD_CAT_ID":61691,"ELEMENT_SET_NO":999,"REV_AT_EPOCH":5069,"BSTAR":-1.0072165e-5,"MEAN_MOTION_DOT":-1.81e-5,"MEAN_MOTION_DDOT":0},{"OBJECT_NAME":"STARLINK-11315 [DTC]","OBJECT_ID":"2024-195F","EPOCH":"2025-09-09T13:28:25.414464","MEAN_MOTION":15.69734796,"ECCENTRICITY":0.00015001,"INCLINATION":53.1596,"RA_OF_ASC_NODE":199.2849,"ARG_OF_PERICENTER":136.0339,"MEAN_ANOMALY":224.0798,"EPHEMERIS_TYPE":0,"CLASSIFICATION_TYPE":"U","NORAD_CAT_ID":61692,"ELEMENT_SET_NO":999,"REV_AT_EPOCH":5058,"BSTAR":-4.688009e-5,"MEAN_MOTION_DOT":-6.271e-5,"MEAN_MOTION_DDOT":0},{"OBJECT_NAME":"STARLINK-11366 [DTC]","OBJECT_ID":"2024-195G","EPOCH":"2025-09-10T02:59:27.740832","MEAN_MOTION":15.69718268,"ECCENTRICITY":0.00012769,"INCLINATION":53.1592,"RA_OF_ASC_NODE":196.3944,"ARG_OF_PERICENTER":73.9357,"MEAN_ANOMALY":286.1801,"EPHEMERIS_TYPE":0,"CLASSIFICATION_TYPE":"U","NORAD_CAT_ID":61693,"ELEMENT_SET_NO":999,"REV_AT_EPOCH":5067,"BSTAR":2.0362912e-5,"MEAN_MOTION_DOT":1.879e-5,"MEAN_MOTION_DDOT":0},{"OBJECT_NAME":"STARLINK-11348 [DTC]","OBJECT_ID":"2024-195H","EPOCH":"2025-09-10T05:55:47.208288","MEAN_MOTION":15.69693252,"ECCENTRICITY":0.00010965,"INCLINATION":53.1599,"RA_OF_ASC_NODE":195.7345,"ARG_OF_PERICENTER":78.7491,"MEAN_ANOMALY":281.365,"EPHEMERIS_TYPE":0,"CLASSIFICATION_TYPE":"U","NORAD_CAT_ID":61694,"ELEMENT_SET_NO":999,"REV_AT_EPOCH":5069,"BSTAR":-2.2642104e-5,"MEAN_MOTION_DOT":-3.328e-5,"MEAN_MOTION_DDOT":0},{"OBJECT_NAME":"STARLINK-11327 [DTC]","OBJECT_ID":"2024-195J","EPOCH":"2025-09-10T05:48:42.960960","MEAN_MOTION":15.69710441,"ECCENTRICITY":0.00018715,"INCLINATION":53.1582,"RA_OF_ASC_NODE":195.7037,"ARG_OF_PERICENTER":56.0242,"MEAN_ANOMALY":304.0954,"EPHEMERIS_TYPE":0,"CLASSIFICATION_TYPE":"U","NORAD_CAT_ID":61695,"ELEMENT_SET_NO":999,"REV_AT_EPOCH":5069,"BSTAR":1.4178494e-5,"MEAN_MOTION_DOT":1.128e-5,"MEAN_MOTION_DDOT":0},{"OBJECT_NAME":"STARLINK-11341 [DTC]","OBJECT_ID":"2024-195K","EPOCH":"2025-09-10T05:41:39.187968","MEAN_MOTION":15.69709752,"ECCENTRICITY":0.0001059,"INCLINATION":53.1596,"RA_OF_ASC_NODE":195.668,"ARG_OF_PERICENTER":57.7461,"MEAN_ANOMALY":302.366,"EPHEMERIS_TYPE":0,"CLASSIFICATION_TYPE":"U","NORAD_CAT_ID":61696,"ELEMENT_SET_NO":999,"REV_AT_EPOCH":5069,"BSTAR":-1.7474135e-5,"MEAN_MOTION_DOT":-2.705e-5,"MEAN_MOTION_DDOT":0},{"OBJECT_NAME":"STARLINK-11346 [DTC]","OBJECT_ID":"2024-195L","EPOCH":"2025-09-09T06:39:19.710144","MEAN_MOTION":15.69698648,"ECCENTRICITY":0.00012547,"INCLINATION":53.159,"RA_OF_ASC_NODE":200.3456,"ARG_OF_PERICENTER":82.4565,"MEAN_ANOMALY":277.6595,"EPHEMERIS_TYPE":0,"CLASSIFICATION_TYPE":"U","NORAD_CAT_ID":61697,"ELEMENT_SET_NO":999,"REV_AT_EPOCH":5054,"BSTAR":-2.924221e-6,"MEAN_MOTION_DOT":-9.43e-6,"MEAN_MOTION_DDOT":0},{"OBJECT_NAME":"STARLINK-11336 [DTC]","OBJECT_ID":"2024-195M","EPOCH":"2025-09-09T16:00:01.999584","MEAN_MOTION":15.69708734,"ECCENTRICITY":9.769e-5,"INCLINATION":53.1572,"RA_OF_ASC_NODE":191.5068,"ARG_OF_PERICENTER":106.1865,"MEAN_ANOMALY":97.8158,"EPHEMERIS_TYPE":0,"CLASSIFICATION_TYPE":"U","NORAD_CAT_ID":61698,"ELEMENT_SET_NO":999,"REV_AT_EPOCH":594,"BSTAR":6.3006975e-5,"MEAN_MOTION_DOT":7.051e-5,"MEAN_MOTION_DDOT":0},{"OBJECT_NAME":"STARLINK-11296 [DTC]","OBJECT_ID":"2024-195N","EPOCH":"2025-09-10T05:20:27.561408","MEAN_MOTION":15.69709082,"ECCENTRICITY":0.00014415,"INCLINATION":53.1577,"RA_OF_ASC_NODE":195.5733,"ARG_OF_PERICENTER":81.2057,"MEAN_ANOMALY":278.9124,"EPHEMERIS_TYPE":0,"CLASSIFICATION_TYPE":"U","NORAD_CAT_ID":61699,"ELEMENT_SET_NO":999,"REV_AT_EPOCH":5069,"BSTAR":6.749371e-6,"MEAN_MOTION_DOT":2.29e-6,"MEAN_MOTION_DDOT":0}]
